NORAD_CAT_ID,OBJECT_NAME,OBJECT_TYPE,EPOCH,MEAN_MOTION,ECCENTRICITY,INCLINATION,RA_OF_ASC_NODE,ARG_OF_PERICENTER,MEAN_ANOMALY,BSTAR,MEAN_MOTION_DOT,MEAN_MOTION_DDOT,TLE_LINE0,TLE_LINE1,TLE_LINE2,SEMIMAJOR_AXIS,PERIOD,APOGEE,PERIGEE,DECAYED
53722.0,STARLINK-4700,PAYLOAD,2022-10-05 08:00:01,15.73147152,0.0001501,53.2161,123.4806,135.1917,268.915,-0.0017672,-0.00241121,0.0,0 STARLINK-4700,1 53722U 22107Y   22278.33334491 -.00241121  00000-0 -17672-2 0  9990,2 53722  53.2161 123.4806 0001501 135.1917 268.9150 15.73147152  4862,6728.045999999999,91.536,350.921,348.901,0.0
53722.0,STARLINK-4700,PAYLOAD,2022-10-05 14:00:01,15.73114597,0.0001463,53.2146,122.2448,141.9884,238.7335,0.00048834,0.00068223,0.0,0 STARLINK-4700,1 53722U 22107Y   22278.58335648  .00068223  00000-0  48834-3 0  9995,2 53722  53.2146 122.2448 0001463 141.9884 238.7335 15.73114597  1302,6728.139,91.538,350.98800000000006,349.019,0.0
53722.0,STARLINK-4700,PAYLOAD,2022-10-05 22:00:00,15.73145922,0.0001165999999999,53.2146,120.5976,134.8473,334.6643,0.00065042,0.00091448,0.0,0 STARLINK-4700,1 53722U 22107Y   22278.91667824  .00091448  00000-0  65042-3 0  9991,2 53722  53.2146 120.5976 0001166 134.8473 334.6643 15.73145922  1308,6728.049,91.536,350.699,349.13,0.0
53722.0,STARLINK-4700,PAYLOAD,2022-10-06 14:00:01,15.73196773,0.0001284,53.2142,117.2966,144.7163,142.6746,0.00023369,0.00032298,0.0,0 STARLINK-4700,1 53722U 22107Y   22279.58334491  .00032298  00000-0  23369-3 0  9990,2 53722  53.2142 117.2966 0001284 144.7163 142.6746 15.73196773  1304,6727.904,91.533,350.6330000000001,348.906,0.0
53722.0,STARLINK-4700,PAYLOAD,2022-10-06 22:42:55,15.73163651,0.000104,53.2139,115.5016,131.5547,53.6138,0.00081462,0.00115105,0.0,0 STARLINK-4700,1 53722U 22107Y   22279.94646991  .00115105  00000-0  81462-3 0  9998,2 53722  53.2139 115.5016 0001040 131.5547  53.6138 15.73163651  1302,6727.999,91.535,350.564,349.164,0.0
53722.0,STARLINK-4700,PAYLOAD,2022-10-07 00:00:00,15.73167416,0.0001064,53.2137,115.2367,131.4611,357.1156,0.00087654,0.00124054,0.0,0 STARLINK-4700,1 53722U 22107Y   22280.00001157  .00124054  00000-0  87654-3 0  9998,2 53722  53.2137 115.2367 0001064 131.4611 357.1156 15.73167416  5133,6727.988,91.535,350.569,349.13699999999994,0.0
53722.0,STARLINK-4700,PAYLOAD,2022-10-07 14:00:01,15.73206957,0.0001462,53.2141,112.3475,129.7071,64.5329,0.00019197,0.00026414,0.0,0 STARLINK-4700,1 53722U 22107Y   22280.58334491  .00026414  00000-0  19197-3 0  9999,2 53722  53.2141 112.3475 0001462 129.7071  64.5329 15.73206957  1308,6727.875,91.533,350.724,348.75699999999995,0.0
53722.0,STARLINK-4700,PAYLOAD,2022-10-07 22:00:00,15.73217438,0.0001240999999999,53.214,110.6998,118.0265,165.171,-0.00028556,-0.00040533,0.0,0 STARLINK-4700,1 53722U 22107Y   22280.91667824 -.00040533  00000-0 -28556-3 0  9994,2 53722  53.2140 110.6998 0001241 118.0265 165.1710 15.73217438  1307,6727.845,91.532,350.545,348.876,0.0
53722.0,STARLINK-4700,PAYLOAD,2022-10-08 06:00:00,15.73196083,0.0001183,53.2137,109.0485,127.8757,244.2532,-0.00026743,-0.00037976,0.0,0 STARLINK-4700,1 53722U 22107Y   22281.25001157 -.00037976  00000-0 -26743-3 0  9996,2 53722  53.2137 109.0485 0001183 127.8757 244.2532 15.73196083  5324,6727.906,91.533,350.56699999999995,348.975,0.0
53722.0,STARLINK-4700,PAYLOAD,2022-10-08 14:00:01,15.7320008,0.0001208,53.2136,107.3988,128.285,332.7252,-0.00016118,-0.00023178,0.0,0 STARLINK-4700,1 53722U 22107Y   22281.58334491 -.00023178  00000-0 -16118-3 0  9996,2 53722  53.2136 107.3988 0001208 128.2850 332.7252 15.73200080  1308,6727.895,91.533,350.5730000000001,348.94699999999995,0.0
53722.0,STARLINK-4700,PAYLOAD,2022-10-08 22:00:00,15.73149466,0.0001094999999999,53.2134,105.751,113.471,76.4716,0.00072959,0.00102811,0.0,0 STARLINK-4700,1 53722U 22107Y   22281.91667824  .00102811  00000-0  72959-3 0  9997,2 53722  53.2134 105.7510 0001095 113.4710  76.4716 15.73149466  5439,6728.0390000000025,91.536,350.641,349.168,0.0
53722.0,STARLINK-4700,PAYLOAD,2022-10-09 06:00:00,15.73215237,0.0001199999999999,53.2133,104.0995,119.6458,159.2134,-0.00023141,-0.0003299,0.0,0 STARLINK-4700,1 53722U 22107Y   22282.25001157 -.00032990  00000-0 -23141-3 0  9997,2 53722  53.2133 104.0995 0001200 119.6458 159.2134 15.73215237  5481,6727.852,91.532,350.524,348.909,0.0
53722.0,STARLINK-4700,PAYLOAD,2022-10-09 14:00:01,15.73215696,0.0001205999999999,53.2136,102.4496,119.0451,248.7538,4.9434e-05,6.328e-05,0.0,0 STARLINK-4700,1 53722U 22107Y   22282.58334491  .00006328  00000-0  49434-4 0  9991,2 53722  53.2136 102.4496 0001206 119.0451 248.7538 15.73215696  1303,6727.85,91.532,350.527,348.904,0.0
53722.0,STARLINK-4700,PAYLOAD,2022-10-09 22:00:00,15.73197297,0.0001129,53.2136,100.8018,102.7243,354.0323,0.00010072,0.00013537,0.0,0 STARLINK-4700,1 53722U 22107Y   22282.91667824  .00013537  00000-0  10072-3 0  9992,2 53722  53.2136 100.8018 0001129 102.7243 354.0323 15.73197297  1306,6727.903,91.533,350.527,349.0080000000001,0.0
53722.0,STARLINK-4700,PAYLOAD,2022-10-10 06:00:00,15.73191406,0.0001152,53.2145,99.1499,109.6139,76.0814,-0.00018381,-0.00026325,0.0,0 STARLINK-4700,1 53722U 22107Y   22283.25001157 -.00026325  00000-0 -18381-3 0  9993,2 53722  53.2145  99.1499 0001152 109.6139  76.0814 15.73191406  5648,6727.92,91.534,350.56,349.01,0.0
53722.0,STARLINK-4700,PAYLOAD,2022-10-10 14:00:01,15.73227548,0.0001169,53.2144,97.5003,109.5605,165.1211,5.0057e-05,6.419e-05,0.0,0 STARLINK-4700,1 53722U 22107Y   22283.58334491  .00006419  00000-0  50057-4 0  9996,2 53722  53.2144  97.5003 0001169 109.5605 165.1211 15.73227548  1302,6727.816999999999,91.532,350.468,348.895,0.0
53722.0,STARLINK-4700,PAYLOAD,2022-10-10 22:00:01,15.73321762,0.0001046,53.2153,95.8527,109.6277,254.075,-0.0031475,-0.00423036,0.0,0 STARLINK-4700,1 53722U 22107Y   22283.91668981 -.00423036  00000-0 -31475-2 0  9998,2 53722  53.2153  95.8527 0001046 109.6277 254.0750 15.73321762  5745,6727.5480000000025,91.526,350.117,348.709,0.0
53722.0,STARLINK-4700,PAYLOAD,2022-10-11 06:00:00,15.73177783,9.01e-05,53.2141,94.2009,108.7565,343.7972,-0.00018043,-0.00025838,0.0,0 STARLINK-4700,1 53722U 22107Y   22284.25001157 -.00025838  00000-0 -18043-3 0  9997,2 53722  53.2141  94.2009 0000901 108.7565 343.7972 15.73177783  5800,6727.959,91.534,350.43,349.217,0.0
53722.0,STARLINK-4700,PAYLOAD,2022-10-11 14:00:01,15.73187977,0.0001307,53.2172,92.5501,104.8198,76.5549,0.00021489,0.00029629,0.0,0 STARLINK-4700,1 53722U 22107Y   22284.58334491  .00029629  00000-0  21489-3 0  9991,2 53722  53.2172  92.5501 0001307 104.8198  76.5549 15.73187977  1300,6727.929,91.534,350.6740000000001,348.915,0.0
53722.0,STARLINK-4700,PAYLOAD,2022-10-11 22:00:00,15.73161096,7.55e-05,53.2137,90.9039,83.3354,186.9577,0.00069132,0.0009737,0.0,0 STARLINK-4700,1 53722U 22107Y   22284.91667824  .00097370  00000-0  69132-3 0  9992,2 53722  53.2137  90.9039 0000755  83.3354 186.9577 15.73161096  5901,6728.005999999999,91.535,350.379,349.36300000000006,0.0
53722.0,STARLINK-4700,PAYLOAD,2022-10-12 06:00:00,15.73189372,0.0001074,53.2147,89.2521,93.3375,265.8608,1.6357999999999998e-05,1.676e-05,0.0,0 STARLINK-4700,1 53722U 22107Y   22285.25001157  .00001676  00000-0  16358-4 0  9998,2 53722  53.2147  89.2521 0001074  93.3375 265.8608 15.73189372  5952,6727.925,91.534,350.51300000000015,349.0680000000001,0.0
53722.0,STARLINK-4700,PAYLOAD,2022-10-12 14:00:01,15.73198595,0.0001127,53.2159,87.6024,93.1592,354.9499,0.00067725,0.00095508,0.0,0 STARLINK-4700,1 53722U 22107Y   22285.58334491  .00095508  00000-0  67725-3 0  9994,2 53722  53.2159  87.6024 0001127  93.1592 354.9499 15.73198595  1303,6727.899,91.533,350.522,349.006,0.0
53722.0,STARLINK-4700,PAYLOAD,2022-10-12 22:00:00,15.73241513,9.48e-05,53.2167,85.9544,81.808,95.2778,-0.00041162,-0.0005809,0.0,0 STARLINK-4700,1 53722U 22107Y   22285.91667824 -.00058090  00000-0 -41162-3 0  9994,2 53722  53.2167  85.9544 0000948  81.8080  95.2778 15.73241513  6068,6727.776999999999,91.531,350.28,349.004,0.0
53722.0,STARLINK-4700,PAYLOAD,2022-10-13 14:00:01,15.73205179,9.32e-05,53.2175,82.6535,86.9861,267.9876,-1.2008e-05,-2.304e-05,0.0,0 STARLINK-4700,1 53722U 22107Y   22286.58334491 -.00002304  00000-0 -12008-4 0  9994,2 53722  53.2175  82.6535 0000932  86.9861 267.9876 15.73205179  1304,6727.88,91.533,350.372,349.11800000000005,0.0
53722.0,STARLINK-4700,PAYLOAD,2022-10-13 20:00:01,15.73042627,8.66e-05,53.2168,81.4178,66.9065,264.925,0.0016804,0.00240466,0.0,0 STARLINK-4700,1 53722U 22107Y   22286.83335648  .00240466  00000-0  16804-2 0  9994,2 53722  53.2168  81.4178 0000866  66.9065 264.9250 15.73042627  6200,6728.344,91.542,350.792,349.626,0.0
53722.0,STARLINK-4700,PAYLOAD,2022-10-13 22:00:00,15.73131137,8.32e-05,53.2168,81.0053,63.8324,20.1099,0.00084887,0.00119871,0.0,0 STARLINK-4700,1 53722U 22107Y   22286.91667824  .00119871  00000-0  84887-3 0  9999,2 53722  53.2168  81.0053 0000832  63.8324  20.1099 15.73131137  1309,6728.092,91.537,350.516,349.397,0.0
53722.0,STARLINK-4700,PAYLOAD,2022-10-14 06:00:00,15.73184727,0.0001142,53.216,79.3543,75.6005,97.1945,0.00083236,0.00117769,0.0,0 STARLINK-4700,1 53722U 22107Y   22287.25001157  .00117769  00000-0  83236-3 0  9999,2 53722  53.2160  79.3543 0001142  75.6005  97.1945 15.73184727  6275,6727.939,91.534,350.57199999999995,349.035,0.0
53722.0,STARLINK-4700,PAYLOAD,2022-10-14 14:00:01,15.73206764,0.0001132,53.2173,77.7049,76.2008,185.5753,-3.2851e-05,-5.228e-05,0.0,0 STARLINK-4700,1 53722U 22107Y   22287.58334491 -.00005228  00000-0 -32851-4 0  9991,2 53722  53.2173  77.7049 0001132  76.2008 185.5753 15.73206764  1305,6727.876,91.533,350.50199999999984,348.97900000000016,0.0
53722.0,STARLINK-4700,PAYLOAD,2022-10-14 16:00:00,15.73204427,0.0001153,53.2174,77.2931,74.6876,299.3224,-1.8258e-06,-8.76e-06,0.0,0 STARLINK-4700,1 53722U 22107Y   22287.66667824 -.00000876  00000-0 -18258-5 0  9999,2 53722  53.2174  77.2931 0001153  74.6876 299.3224 15.73204427  6338,6727.8830000000025,91.533,350.523,348.972,0.0
